OBJECT_NAME,OBJECT_ID,EPOCH,MEAN_MOTION,ECCENTRICITY,INCLINATION,RA_OF_ASC_NODE,ARG_OF_PERICENTER,MEAN_ANOMALY,EPHEMERIS_TYPE,CLASSIFICATION_TYPE,NORAD_CAT_ID,ELEMENT_SET_NO,REV_AT_EPOCH,BSTAR,MEAN_MOTION_DOT,MEAN_MOTION_DDOT
STARLINK-11235 [DTC],2024-152G,2025-03-25T21:33:07.098048,15.69721694,.0001397,53.1594,35.6540,76.5041,283.6132,0,U,60726,999,3418,-.93763E-5,-.1725E-4,0
STARLINK-11080 [DTC],2024-152H,2025-03-26T03:32:46.683456,15.69720135,.0001079,53.1589,34.3677,124.6885,235.4235,0,U,60727,999,3422,.33061E-4,.342E-4,0
STARLINK-11249 [DTC],2024-152J,2025-03-26T03:25:42.494016,15.69730877,.000148,53.1603,34.3318,65.7921,294.3252,0,U,60728,999,3411,.20663E-4,.1917E-4,0
STARLINK-11146 [DTC],2024-152K,2025-03-26T03:18:39.093408,15.69715697,.0001267,53.1587,34.2869,68.8063,291.3091,0,U,60729,999,3422,.32907E-4,.34E-4,0
STARLINK-11255 [DTC],2024-152L,2025-03-26T03:11:34.901376,15.69726539,.0001513,53.1601,34.2673,78.6596,281.4592,0,U,60730,999,3410,.29324E-4,.2967E-4,0
STARLINK-11254 [DTC],2024-152M,2025-03-26T01:32:51.326016,15.69708521,.0001548,53.1588,34.5490,123.3392,236.7775,0,U,60731,999,3409,-.35164E-5,-.1015E-4,0
STARLINK-11266 [DTC],2024-152N,2025-03-26T02:57:28.277280,15.69707637,.0001279,53.1582,34.1916,77.8187,282.2974,0,U,60732,999,3410,.51613E-5,.36E-6,0
STARLINK-32253,2024-152P,2025-03-26T04:21:32.667840,15.30194417,.0001535,53.1616,87.1347,91.9958,268.1219,0,U,60733,999,3344,.11897E-4,-.7E-7,0
STARLINK-32179,2024-152Q,2025-03-26T05:22:20.265888,15.30192940,.0001386,53.1603,87.4157,104.6290,255.4865,0,U,60734,999,3338,.12761E-3,.3421E-4,0
STARLINK-32272,2024-152R,2025-03-26T05:13:13.183680,15.30175061,.0001311,53.1612,87.3728,73.3908,286.7237,0,U,60735,999,3344,.10009E-3,.2604E-4,0
STARLINK-32280,2024-152S,2025-03-25T17:26:12.855552,15.30189909,.0001526,53.1611,89.2787,88.3113,271.8062,0,U,60736,999,3338,.39673E-4,.815E-5,0
STARLINK-32289,2024-152T,2025-03-26T05:04:04.912608,15.30215015,.0001569,53.1604,87.3375,45.4973,314.6156,0,U,60737,999,3348,-.32036E-3,-.984E-4,0
STARLINK-32304,2024-152U,2025-03-26T04:59:31.974144,15.30202181,.0001556,53.1606,87.3116,67.2559,292.8606,0,U,60738,999,3347,.70298E-5,-.151E-5,0
STARLINK-32235,2024-152V,2025-03-25T17:56:36.423456,15.30196481,.0001584,53.1598,89.4133,63.0337,297.0825,0,U,60739,999,3337,.13786E-4,.49E-6,0
STARLINK-32315,2024-152W,2025-03-26T04:50:22.070112,15.30230597,.0001788,53.1614,87.2691,111.8638,248.2553,0,U,60740,999,3338,.20244E-3,.5646E-4,0
2024-153A,2024-153A,2025-03-26T03:36:24.202368,15.18428610,.0012664,97.6273,208.8253,280.7673,79.2135,0,U,60745,999,3161,.12797E-2,.26398E-3,0
2024-153B,2024-153B,2025-03-26T04:43:29.197344,15.18995626,.0012895,97.6267,209.0678,288.1423,71.8407,0,U,60746,999,3163,.14422E-2,.30268E-3,0
2024-153C,2024-153C,2025-03-26T04:21:16.023744,15.20426791,.0013707,97.6253,209.2230,287.2160,72.7574,0,U,60747,999,3164,.16031E-2,.35111E-3,0
2024-153D,2024-153D,2025-03-26T04:35:40.742592,15.20870051,.0013326,97.6283,209.4567,283.4750,76.5000,0,U,60748,999,3165,.18666E-2,.41456E-3,0
2024-153E,2024-153E,2025-03-26T04:03:57.572640,15.20896713,.0013143,97.6244,209.3913,282.1126,77.8636,0,U,60749,999,3165,.19097E-2,.42451E-3,0
2024-153F,2024-153F,2025-03-26T03:46:36.609024,15.21807922,.0012855,97.6212,209.3131,288.4679,71.5159,0,U,60750,999,3165,.19529E-2,.44594E-3,0
STARLINK-11242 [DTC],2024-154A,2025-03-26T04:48:33.782400,15.69720790,.000135,53.1591,48.9394,60.6496,299.4657,0,U,60903,999,3378,.29759E-4,.3019E-4,0
STARLINK-11256 [DTC],2024-154B,2025-03-26T04:41:30.728256,15.69707209,.0001185,53.1598,48.9072,77.8172,282.2978,0,U,60904,999,3378,.88543E-5,.484E-5,0
STARLINK-11159 [DTC],2024-154C,2025-03-26T04:27:30.835584,15.69719996,.0000883,53.1591,49.5772,86.0634,274.0484,0,U,60905,999,3377,.39253E-4,.4171E-4,0
STARLINK-11264 [DTC],2024-154D,2025-03-26T04:20:27.499776,15.69721784,.0001022,53.1593,49.5458,76.9284,283.1848,0,U,60906,999,3377,.16623E-4,.1427E-4,0
STARLINK-11226 [DTC],2024-154E,2025-03-26T04:13:23.151360,15.69727696,.000113,53.1586,49.5120,76.4203,283.6941,0,U,60907,999,3376,.14685E-4,.1192E-4,0
STARLINK-11229 [DTC],2024-154F,2025-03-26T04:06:20.119680,15.69713298,.0001173,53.1584,49.4785,68.7303,291.3840,0,U,60908,999,3376,.64415E-5,.192E-5,0
STARLINK-11265 [DTC],2024-154G,2025-03-26T04:34:34.642272,15.69721383,.0000999,53.1582,49.6091,86.4865,273.6267,0,U,60909,999,3376,.32751E-4,.3383E-4,0
STARLINK-11250 [DTC],2024-154H,2025-03-26T03:59:16.468512,15.69709070,.0001131,53.1593,49.4455,91.7474,268.3674,0,U,60910,999,3376,-.62214E-6,-.664E-5,0
STARLINK-11190 [DTC],2024-154J,2025-03-26T03:52:12.441504,15.69714579,.0001511,53.1589,49.4134,90.3183,269.8008,0,U,60911,999,3376,.29865E-5,-.227E-5,0
STARLINK-11225 [DTC],2024-154K,2025-03-26T03:45:08.470656,15.69716327,.0001653,53.1597,49.3804,81.0886,279.0319,0,U,60912,999,3376,.84467E-5,.434E-5,0
STARLINK-11273 [DTC],2024-154L,2025-03-26T03:38:05.032032,15.69715315,.0001586,53.1577,49.3464,83.6105,276.5093,0,U,60913,999,3377,.44883E-4,.4853E-4,0
STARLINK-11248 [DTC],2024-154M,2025-03-26T03:31:01.190784,15.69712180,.000146,53.1582,49.3134,85.9520,274.1664,0,U,60914,999,3376,.11129E-4,.759E-5,0
STARLINK-11271 [DTC],2024-154N,2025-03-26T03:23:57.102432,15.69716067,.0001485,53.1587,49.2820,89.6425,270.4763,0,U,60915,999,3376,.13062E-5,-.431E-5,0
STARLINK-32371,2024-154P,2025-03-26T05:26:56.326848,15.30199885,.000112,53.1605,102.4207,107.7773,252.3350,0,U,60916,999,3298,-.13446E-4,-.757E-5,0
STARLINK-32369,2024-154Q,2025-03-25T18:01:13.929024,15.30191475,.0001024,53.1589,104.4319,68.1806,291.9304,0,U,60917,999,3291,.37789E-4,.76E-5,0
STARLINK-32317,2024-154R,2025-03-25T11:14:47.569632,15.30182786,.0001431,53.1603,106.2231,97.1573,262.9590,0,U,60918,999,3286,-.19177E-4,-.927E-5,0
STARLINK-32367,2024-154S,2025-03-26T04:42:52.281216,15.30200514,.0001209,53.1603,102.2349,79.7825,280.3312,0,U,60919,999,3299,.33112E-4,.622E-5,0
STARLINK-32345,2024-154T,2025-03-25T08:08:11.534496,15.30195818,.0001144,53.1583,106.8358,82.4389,277.6742,0,U,60920,999,3285,.19772E-3,.55E-4,0
STARLINK-32356,2024-154U,2025-03-25T08:50:35.554848,15.30181684,.0001511,53.1601,106.3014,76.0228,284.0940,0,U,60921,999,3286,-.2688E-4,-.1155E-4,0
STARLINK-32274,2024-154V,2025-03-25T18:39:12.986496,15.30183174,.0001448,53.1611,104.5894,94.6416,265.4750,0,U,60922,999,3292,.20754E-4,.255E-5,0
STARLINK-32373,2024-154W,2025-03-25T18:52:53.451264,15.30185666,.0001601,53.1603,104.6534,73.7248,286.3929,0,U,60923,999,3292,.23739E-4,.343E-5,0
STARLINK-11239 [DTC],2024-155A,2025-03-26T04:52:12.015840,15.69734925,.0000648,53.1589,259.5309,269.0782,91.0161,0,U,60924,999,3365,-.13246E-4,-.2194E-4,0
STARLINK-11245 [DTC],2024-155B,2025-03-26T04:31:01.864992,15.69720963,.0001605,53.1565,259.4353,67.1316,292.9871,0,U,60925,999,3354,-.21477E-4,-.3192E-4,0
STARLINK-11244 [DTC],2024-155C,2025-03-26T04:16:53.772096,15.69728055,.0001156,53.1578,259.3687,38.3552,321.7547,0,U,60926,999,3370,-.14237E-4,-.2314E-4,0
STARLINK-11243 [DTC],2024-155D,2025-03-26T04:23:58.218144,15.69712278,.0001116,53.1582,259.3990,84.5691,275.5454,0,U,60927,999,3355,.63887E-5,.185E-5,0
STARLINK-11238 [DTC],2024-155E,2025-03-25T11:21:20.634336,15.69681674,.0000708,53.1578,262.7877,114.5168,245.5923,0,U,60928,999,3360,.26687E-4,.2643E-4,0
STARLINK-11240 [DTC],2024-155F,2025-03-24T18:25:43.139424,15.69708795,.0000888,53.1591,266.2115,16.7685,343.3362,0,U,60929,999,3344,.31037E-4,.3173E-4,0
STARLINK-11251 [DTC],2024-155G,2025-03-25T21:48:58.268736,15.69720120,.0000182,53.1586,260.5275,99.6157,260.4881,0,U,60930,999,3345,-.10571E-4,-.1868E-4,0
STARLINK-11204 [DTC],2024-155H,2025-03-25T18:38:31.522272,15.69734050,.0000402,53.1585,261.1209,115.4499,244.6561,0,U,60931,999,3360,.17813E-4,.1573E-4,0
STARLINK-11246 [DTC],2024-155J,2025-03-25T18:31:28.076736,15.69730165,.0000034,53.1585,261.0899,101.4360,258.6662,0,U,60932,999,3360,-.18022E-5,-.805E-5,0
STARLINK-11207 [DTC],2024-155K,2025-03-25T18:24:24.796224,15.69726682,.0001565,53.1557,261.0540,85.9377,274.1820,0,U,60933,999,3360,.12341E-3,.14398E-3,0
STARLINK-11237 [DTC],2024-155L,2025-03-23T21:58:31.045440,15.69716544,.0000786,53.1585,270.1232,81.6339,278.4768,0,U,60934,999,3324,-.19201E-4,-.2914E-4,0
STARLINK-11253 [DTC],2024-155M,2025-03-25T21:06:44.563680,15.69711612,.0000222,53.1578,261.0628,149.1606,210.9425,0,U,60935,999,3361,-.17605E-4,-.2719E-4,0
STARLINK-11241 [DTC],2024-155N,2025-03-26T04:38:05.240544,15.69725058,.0000819,53.1568,259.4625,93.0241,267.0870,0,U,60936,999,3365,-.22479E-4,-.3312E-4,0
STARLINK-32259,2024-155P,2025-03-25T00:40:01.466400,15.30205261,.0000946,53.1597,313.9860,95.9679,264.1430,0,U,60937,999,3280,.22694E-3,.6369E-4,0
STARLINK-32262,2024-155Q,2025-03-24T23:49:10.617600,15.30192647,.0001446,53.1591,301.3957,76.0861,284.0301,0,U,60938,999,3302,.15122E-3,.4121E-4,0
STARLINK-32258,2024-155R,2025-03-25T00:20:15.952128,15.30174134,.0001148,53.1617,313.8976,81.8976,278.2154,0,U,60939,999,3275,.18632E-3,.5159E-4,0
STARLINK-32251,2024-155S,2025-03-25T00:29:23.514720,15.30180624,.0001454,53.1618,313.9411,76.8878,283.2285,0,U,60940,999,3280,.13116E-3,.3525E-4,0
STARLINK-32224,2024-155T,2025-03-25T00:24:49.503168,15.30181367,.0000941,53.1612,313.9163,78.4659,281.6447,0,U,60941,999,3281,.2289E-3,.6422E-4,0
STARLINK-32184,2024-155U,2025-03-26T00:06:16.532928,15.30180559,.0000868,53.1618,309.4165,78.4581,281.6517,0,U,60942,999,3290,.34238E-4,.655E-5,0
STARLINK-32288,2024-155V,2025-03-25T21:11:50.792928,15.30188889,.0001152,53.1604,310.0763,97.2025,262.9106,0,U,60943,999,3288,-.44041E-4,-.1663E-4,0
STARLINK-32276,2024-155W,2025-03-25T21:07:15.398112,15.30256486,.000169,53.1575,310.0547,63.2459,296.8715,0,U,60944,999,3298,-.48265E-3,-.14652E-3,0
YAOGAN-43 02A,2024-156A,2025-03-26T04:45:44.657856,15.23358316,.000541,34.9965,135.4810,246.1541,113.8607,0,U,60945,999,3115,.17146E-2,.41963E-3,0
YAOGAN-43 02B,2024-156B,2025-03-26T04:54:51.121440,15.22988381,.0004197,34.9951,135.5082,59.0165,301.0961,0,U,60946,999,3110,.13129E-2,.31722E-3,0
